FLOCK 4G-30             
1 62679U 25009BY  26068.70871344  .00013147  00000+0  49475-3 0  9999
2 62679  97.3969 150.6012 0003795 342.4152  17.6955 15.27244548121341
STARLINK-32770          
1 62741U 25014G   26068.25697484  .00033908  00000+0  12357-2 0  9991
2 62741  42.9954 156.6242 0000407 256.5000 103.5806 15.27588135 63197
